[{"OBJECT_NAME":"STARLINK-31106","OBJECT_ID":"2023-211Y","EPOCH":"2026-03-09T02:16:57.114336","MEAN_MOTION":15.27576272,"ECCENTRICITY":6.219e-5,"INCLINATION":43.0024,"RA_OF_ASC_NODE":88.6354,"ARG_OF_PERICENTER":276.696,"MEAN_ANOMALY":83.382,"EPHEMERIS_TYPE":0,"CLASSIFICATION_TYPE":"U","NORAD_CAT_ID":58689,"ELEMENT_SET_NO":999,"REV_AT_EPOCH":12237,"BSTAR":4.3779382e-5,"MEAN_MOTION_DOT":9.43e-6,"MEAN_MOTION_DDOT":0},{"OBJECT_NAME":"ARCSTONE","OBJECT_ID":"2025-135N","EPOCH":"2026-03-09T21:21:29.017152","MEAN_MOTION":15.28638458,"ECCENTRICITY":0.00041199,"INCLINATION":97.4495,"RA_OF_ASC_NODE":185.9194,"ARG_OF_PERICENTER":166.7863,"MEAN_ANOMALY":193.3485,"EPHEMERIS_TYPE":0,"CLASSIFICATION_TYPE":"U","NORAD_CAT_ID":64540,"ELEMENT_SET_NO":999,"REV_AT_EPOCH":3984,"BSTAR":0.00094899777,"MEAN_MOTION_DOT":0.00026427,"MEAN_MOTION_DDOT":0}]
